[{"OBJECT_NAME":"CORVUS BC1","OBJECT_ID":"2017-042Y","EPOCH":"2026-03-09T22:24:00.973440","MEAN_MOTION":15.05817893,"ECCENTRICITY":0.00132832,"INCLINATION":97.3986,"RA_OF_ASC_NODE":234.9925,"ARG_OF_PERICENTER":71.1953,"MEAN_ANOMALY":289.0714,"EPHEMERIS_TYPE":0,"CLASSIFICATION_TYPE":"U","NORAD_CAT_ID":42847,"ELEMENT_SET_NO":999,"REV_AT_EPOCH":47215,"BSTAR":0.00033801202,"MEAN_MOTION_DOT":4.853e-5,"MEAN_MOTION_DDOT":0},{"OBJECT_NAME":"STARLINK-3910","OBJECT_ID":"2022-051BC","EPOCH":"2026-03-09T12:49:30.281664","MEAN_MOTION":15.08841511,"ECCENTRICITY":0.00011961,"INCLINATION":53.2169,"RA_OF_ASC_NODE":119.8187,"ARG_OF_PERICENTER":94.3692,"MEAN_ANOMALY":265.7437,"EPHEMERIS_TYPE":0,"CLASSIFICATION_TYPE":"U","NORAD_CAT_ID":52586,"ELEMENT_SET_NO":999,"REV_AT_EPOCH":21156,"BSTAR":9.4620466e-5,"MEAN_MOTION_DOT":1.218e-5,"MEAN_MOTION_DDOT":0}]
