CORVUS BC1              
1 42847U 17042Y   26068.93334460  .00004853  00000+0  33801-3 0  9990
2 42847  97.3986 234.9925 0013283  71.1953 289.0714 15.05817892472152
STARLINK-3910           
1 52586U 22051BC  26068.53437826  .00001218  00000+0  94620-4 0  9992
2 52586  53.2169 119.8187 0001196  94.3692 265.7437 15.08841511211562
